ONEWEB-0607             
1 54671U 22166AF  25138.52028019  .00000064  00000+0  12261-3 0  9990
2 54671  87.9246 322.6798 0001828  85.2885 274.8458 13.21823876119407
ONEWEB-0608             
1 54672U 22166AG  25138.60230054  .00000055  00000+0  10204-3 0  9999
2 54672  87.9230 322.6597 0002002  77.3468 282.7890 13.21824201119425
ONEWEB-0610             
1 54673U 22166AH  25138.58336964 -.00000028  00000+0 -98986-4 0  9990
2 54673  87.9246 322.6863 0002066  78.3410 281.7956 13.21824223119322
ONEWEB-0611             
1 54674U 22166AJ  25138.57705346 -.00000022  00000+0 -85505-4 0  9991
2 54674  87.9246 322.6847 0001719  98.7993 261.3336 13.21823694119788
ONEWEB-0612             
1 54675U 22166AK  25138.58967860 -.00000158  00000+0 -41396-3 0  9993
2 54675  87.9244 322.6602 0001867  84.0154 276.1192 13.21826387119301
ONEWEB-0615             
1 54676U 22166AL  25138.57077265  .00003293  00000+0  79412-2 0  9994
2 54676  87.9245 322.6902 0001580  95.8078 264.3236 13.21810820119788
ONEWEB-0655             
1 54677U 22166AM  25138.54395811  .00000085  00000+0  17367-3 0  9990
2 54677  87.9246 322.6997 0001520  81.9405 278.1901 13.21823785119302
ONEWEB-0659             
1 54678U 22166AN  25138.56129298 -.00000045  00000+0 -14161-3 0  9994
2 54678  87.9244 322.6982 0001910  93.2841 266.8511 13.21826717119396
